SAUDISAT 2              
1 28371U 04025F   26162.60250800  .00000237  00000+0  64135-4 0  9994
2 28371  98.5507 162.4401 0023822 316.1423  43.7882 14.56680728164934
COSMOS 2407             
1 28380U 04028A   26162.49230685  .00000038  00000+0  23946-4 0  9997
2 28380  82.9609  79.0518 0037787 268.4835 271.7499 13.76334314 99096
COSMOS 2414             
1 28521U 05002A   26162.69741829  .00000049  00000+0  28042-4 0  9990
2 28521  82.9503  47.7995 0039876 347.1330  12.8812 13.87926114 83052
INMARSAT 4-F1           
1 28628U 05009A   26162.51586388  .00000046  00000+0  00000+0 0  9999
2 28628   5.1602  42.7431 0002573  40.6377 180.3118  1.00271602 77619
SJ-7                    
1 28737U 05024A   26162.63204487  .00008018  00000+0  35862-3 0  9992
2 28737  97.7291 192.5862 0016848  55.9354 304.3478 15.21458498147182
CUBESAT XI-V            
1 28895U 05043F   26162.69508378  .00001243  00000+0  20337-3 0  9994
2 28895  98.2978 318.2017 0013309 218.8930 141.1320 14.72616955100948
HINODE (SOLAR-B)        
1 29479U 06041A   26162.66668160  .00000619  00000+0  11471-3 0  9990
2 29479  98.0549 178.9007 0016219 308.7866  51.1890 14.68615604 54067
SHIJIAN-6 02B (SJ-6 02B)
1 29506U 06046B   26162.68131375  .00001327  00000+0  10748-3 0  9994
2 29506  97.7166 191.7741 0015026  76.3049 283.9847 15.01363330 69914
DMSP 5D-3 F17 (USA 191) 
1 29522U 06050A   26162.65421281  .00000021  00000+0  33349-4 0  9995
2 29522  98.7378 169.3375 0011294  73.5160 286.7254 14.14992259 11649
LAPAN-TUBSAT            
1 29709U 07001A   26162.73262131 -.00000075  00000+0 -19990-5 0  9993
2 29709  98.1343 161.8336 0011464 197.8214 162.2600 14.85942327 50347
HAIYANG-1B              
1 31113U 07010A   26162.55118838  .00000078  00000+0  45317-4 0  9991
2 31113  98.3492 144.6150 0012676 213.8239 146.2137 14.31025505999824
COSMO-SKYMED 2          
1 32376U 07059A   26162.69268648  .00000373  00000+0  53384-4 0  9997
2 32376  97.8885 346.3705 0001383  85.7037 274.4334 14.82150460  1190
CARTOSAT-2A             
1 32783U 08021A   26162.70265910  .00001104  00000+0  15513-3 0  9994
2 32783  97.7639 211.5986 0012935 124.8651 235.3779 14.79231986977992
CUTE-1.7+APD II (CO-65) 
1 32785U 08021C   26162.68027479  .00004985  00000+0  31570-3 0  9990
2 32785  97.8271 143.9841 0010294  55.5491 304.6708 15.09402411984361
SEEDS II (CO-66)        
1 32791U 08021J   26162.25964503  .00015274  00000+0  48820-3 0  9997
2 32791  97.7517 159.8749 0001967  23.1856 336.9473 15.32546772986382
YUBILEINY (RS30)        
1 32953U 08025A   26162.70643383 -.00000013  00000+0 -16657-3 0  9991
2 32953  82.5050 358.8506 0019075 326.2466  33.7398 12.43178720819017
FENGYUN 3A              
1 32958U 08026A   26162.69057556  .00000044  00000+0  41615-4 0  9991
2 32958  98.6883 103.6266 0009361 138.1818 222.0075 14.19570066934625
HUANJING 1A (HJ-1A)     
1 33320U 08041A   26162.70466561  .00000672  00000+0  86737-4 0  9995
2 33320  97.6679 148.7546 0019511 152.0792 208.1474 14.83971862957595
HUANJING 1B (HJ-1B)     
1 33321U 08041B   26162.73871302  .00001231  00000+0  15507-3 0  9990
2 33321  97.6517 151.9760 0035551 199.0029 160.9862 14.83309347957608
SHIJIAN-6 03A (SJ-6 03A)
1 33408U 08053A   26162.70646664  .00005146  00000+0  26282-3 0  9998
2 33408  97.8414 195.8370 0012153  37.9004 322.3082 15.17112103962134
SHIJIAN-6 03B (SJ-6 03B)
1 33409U 08053B   26162.71192134  .00001210  00000+0  91172-4 0  9997
2 33409  97.8588 182.5128 0021180  62.1592 298.1776 15.04295210961926
CHUANGXIN 1-02 (CX-1-02)
1 33434U 08056B   26162.70051756 -.00000030  00000+0  53402-5 0  9996
2 33434  98.6141 189.0221 0014685 151.9696 208.2280 14.30151506917838
