OBJECT_NAME,OBJECT_ID,EPOCH,MEAN_MOTION,ECCENTRICITY,INCLINATION,RA_OF_ASC_NODE,ARG_OF_PERICENTER,MEAN_ANOMALY,EPHEMERIS_TYPE,CLASSIFICATION_TYPE,NORAD_CAT_ID,ELEMENT_SET_NO,REV_AT_EPOCH,BSTAR,MEAN_MOTION_DOT,MEAN_MOTION_DDOT
SAUDISAT 2,2004-025F,2026-06-11T14:27:36.691200,14.56680728,.0023822,98.5507,162.4401,316.1423,43.7882,0,U,28371,999,16493,.64135E-4,.237E-5,0
COSMOS 2407,2004-028A,2026-06-11T11:48:55.311840,13.76334314,.0037787,82.9609,79.0518,268.4835,271.7499,0,U,28380,999,9909,.23946E-4,.38E-6,0
COSMOS 2414,2005-002A,2026-06-11T16:44:16.940256,13.87926114,.0039876,82.9503,47.7995,347.1330,12.8812,0,U,28521,999,8305,.28042E-4,.49E-6,0
INMARSAT 4-F1,2005-009A,2026-06-11T12:22:50.639232,1.00271602,.0002573,5.1602,42.7431,40.6377,180.3118,0,U,28628,999,7761,0,.46E-6,0
SJ-7,2005-024A,2026-06-11T15:10:08.676768,15.21458498,.0016848,97.7291,192.5862,55.9354,304.3478,0,U,28737,999,14718,.35862E-3,.8018E-4,0
CUBESAT XI-V,2005-043F,2026-06-11T16:40:55.238592,14.72616955,.0013309,98.2978,318.2017,218.8930,141.1320,0,U,28895,999,10094,.20337E-3,.1243E-4,0
HINODE (SOLAR-B),2006-041A,2026-06-11T16:00:01.290240,14.68615604,.0016219,98.0549,178.9007,308.7866,51.1890,0,U,29479,999,5406,.11471E-3,.619E-5,0
SHIJIAN-6 02B (SJ-6 02B),2006-046B,2026-06-11T16:21:05.508000,15.01363330,.0015026,97.7166,191.7741,76.3049,283.9847,0,U,29506,999,6991,.10748E-3,.1327E-4,0
DMSP 5D-3 F17 (USA 191),2006-050A,2026-06-11T15:42:03.986784,14.14992259,.0011294,98.7378,169.3375,73.5160,286.7254,0,U,29522,999,1164,.33349E-4,.21E-6,0
LAPAN-TUBSAT,2007-001A,2026-06-11T17:34:58.481184,14.85942327,.0011464,98.1343,161.8336,197.8214,162.2600,0,U,29709,999,5034,-.1999E-5,-.75E-6,0
HAIYANG-1B,2007-010A,2026-06-11T13:13:42.676032,14.31025505,.0012676,98.3492,144.6150,213.8239,146.2137,0,U,31113,999,99982,.45317E-4,.78E-6,0
COSMO-SKYMED 2,2007-059A,2026-06-11T16:37:28.111872,14.82150460,.0001383,97.8885,346.3705,85.7037,274.4334,0,U,32376,999,119,.53384E-4,.373E-5,0
CARTOSAT-2A,2008-021A,2026-06-11T16:51:49.746240,14.79231986,.0012935,97.7639,211.5986,124.8651,235.3779,0,U,32783,999,97799,.15513E-3,.1104E-4,0
CUTE-1.7+APD II (CO-65),2008-021C,2026-06-11T16:19:35.741856,15.09402411,.0010294,97.8271,143.9841,55.5491,304.6708,0,U,32785,999,98436,.3157E-3,.4985E-4,0
SEEDS II (CO-66),2008-021J,2026-06-11T06:13:53.330592,15.32546772,.0001967,97.7517,159.8749,23.1856,336.9473,0,U,32791,999,98638,.4882E-3,.15274E-3,0
YUBILEINY (RS30),2008-025A,2026-06-11T16:57:15.882912,12.43178720,.0019075,82.5050,358.8506,326.2466,33.7398,0,U,32953,999,81901,-.16657E-3,-.13E-6,0
FENGYUN 3A,2008-026A,2026-06-11T16:34:25.728384,14.19570066,.0009361,98.6883,103.6266,138.1818,222.0075,0,U,32958,999,93462,.41615E-4,.44E-6,0
HUANJING 1A (HJ-1A),2008-041A,2026-06-11T16:54:43.108704,14.83971862,.0019511,97.6679,148.7546,152.0792,208.1474,0,U,33320,999,95759,.86737E-4,.672E-5,0
HUANJING 1B (HJ-1B),2008-041B,2026-06-11T17:43:44.804928,14.83309347,.0035551,97.6517,151.9760,199.0029,160.9862,0,U,33321,999,95760,.15507E-3,.1231E-4,0
SHIJIAN-6 03A (SJ-6 03A),2008-053A,2026-06-11T16:57:18.717696,15.17112103,.0012153,97.8414,195.8370,37.9004,322.3082,0,U,33408,999,96213,.26282E-3,.5146E-4,0
SHIJIAN-6 03B (SJ-6 03B),2008-053B,2026-06-11T17:05:10.003776,15.04295210,.002118,97.8588,182.5128,62.1592,298.1776,0,U,33409,999,96192,.91172E-4,.121E-4,0
CHUANGXIN 1-02 (CX-1-02),2008-056B,2026-06-11T16:48:44.717184,14.30151506,.0014685,98.6141,189.0221,151.9696,208.2280,0,U,33434,999,91783,.53402E-5,-.3E-6,0
